NORAD_CAT_ID,OBJECT_NAME,OBJECT_TYPE,EPOCH,MEAN_MOTION,ECCENTRICITY,INCLINATION,RA_OF_ASC_NODE,ARG_OF_PERICENTER,MEAN_ANOMALY,BSTAR,MEAN_MOTION_DOT,MEAN_MOTION_DDOT,TLE_LINE0,TLE_LINE1,TLE_LINE2,SEMIMAJOR_AXIS,PERIOD,APOGEE,PERIGEE,DECAYED
53023.0,STARLINK-4284,PAYLOAD,2023-12-30 11:32:20,15.08850021,0.0001479,53.2179,76.3889,85.106,275.0101,9.0389e-05,1.151e-05,0.0,0 STARLINK-4284,1 53023U 22076AP  23364.48079394  .00001151  00000-0  90389-4 0  9993,2 53023  53.2179  76.3889 0001479  85.1060 275.0101 15.08850021 82651,6917.85,95.437,540.738,538.692,0.0
53023.0,STARLINK-4284,PAYLOAD,2023-12-31 11:23:08,15.08834426,0.0001518,53.2187,71.9292,99.4228,260.6936,2.9738e-05,1.85e-06,0.0,0 STARLINK-4284,1 53023U 22076AP  23365.47440508  .00000185  00000-0  29738-4 0  9998,2 53023  53.2187  71.9292 0001518  99.4228 260.6936 15.08834426 82801,6917.897,95.438,540.813,538.712,0.0
53023.0,STARLINK-4284,PAYLOAD,2024-01-01 11:13:55,15.08841343,0.0001613,53.2186,67.4694,102.4366,257.6806,3.3569e-05,2.46e-06,0.0,0 STARLINK-4284,1 53023U 22076AP  24001.46800133  .00000246  00000-0  33569-4 0  9994,2 53023  53.2186  67.4694 0001613 102.4366 257.6806 15.08841343 82954,6917.876,95.437,540.857,538.625,0.0
53023.0,STARLINK-4284,PAYLOAD,2024-01-02 04:43:10,15.08833905,0.0001538,53.2185,64.1993,97.1336,262.9831,8.5537e-05,1.073e-05,0.0,0 STARLINK-4284,1 53023U 22076AP  24002.19664576  .00001073  00000-0  85537-4 0  9995,2 53023  53.2185  64.1993 0001538  97.1336 262.9831 15.08833905 83067,6917.899,95.438,540.828,538.7,0.0
53023.0,STARLINK-4284,PAYLOAD,2024-01-02 09:29:19,15.08837338,0.0001539,53.2184,63.3073,92.7813,267.3355,0.00011246,1.502e-05,0.0,0 STARLINK-4284,1 53023U 22076AP  24002.39536419  .00001502  00000-0  11246-3 0  9993,2 53023  53.2184  63.3073 0001539  92.7813 267.3355 15.08837338 82623,6917.889,95.438,540.818,538.689,0.0
53023.0,STARLINK-4284,PAYLOAD,2024-01-03 10:55:30,15.08834373,0.0001558,53.2181,58.5483,74.4326,285.6838,3.8568e-06,-2.27e-06,0.0,0 STARLINK-4284,1 53023U 22076AP  24003.45521300 -.00000227  00000-0  38568-5 0  9996,2 53023  53.2181  58.5483 0001558  74.4326 285.6838 15.08834373 83253,6917.898,95.438,540.84,538.685,0.0
53023.0,STARLINK-4284,PAYLOAD,2024-01-04 10:46:16,15.08844976,0.0001547,53.2172,54.0872,69.5841,290.5317,0.00010506,1.385e-05,0.0,0 STARLINK-4284,1 53023U 22076AP  24004.44880453  .00001385  00000-0  10506-3 0  9998,2 53023  53.2172  54.0872 0001547  69.5841 290.5317 15.08844976 83405,6917.865,95.437,540.8,538.66,0.0
53023.0,STARLINK-4284,PAYLOAD,2024-01-04 23:29:23,15.08828245,0.0001509,53.2185,51.7098,118.4642,241.6502,-3.5246e-05,-8.49e-06,0.0,0 STARLINK-4284,1 53023U 22076AP  24004.97873959 -.00000849  00000-0 -35246-4 0  9994,2 53023  53.2185  51.7098 0001509 118.4642 241.6502 15.08828245 83486,6917.916,95.438,540.825,538.737,0.0
53023.0,STARLINK-4284,PAYLOAD,2024-01-05 10:37:06,15.08821125,0.0001358,53.2172,49.6265,83.1609,276.9537,-5.0991e-05,-1.099e-05,0.0,0 STARLINK-4284,1 53023U 22076AP  24005.44243084 -.00001099  00000-0 -50991-4 0  9999,2 53023  53.2172  49.6265 0001358  83.1609 276.9537 15.08821125 83554,6917.938,95.439,540.743,538.864,0.0
53023.0,STARLINK-4284,PAYLOAD,2024-01-06 02:30:56,15.08837629,0.0001469,53.2172,46.6504,112.4678,247.647,1.4088e-05,-6.4e-07,0.0,0 STARLINK-4284,1 53023U 22076AP  24006.10482138 -.00000064  00000-0  14088-4 0  9995,2 53023  53.2172  46.6504 0001469 112.4678 247.6470 15.08837629 83650,6917.888,95.438,540.769,538.736,0.0
53023.0,STARLINK-4284,PAYLOAD,2024-01-06 08:52:28,15.08846516,0.000139,53.2172,45.4628,91.8068,268.3083,9.1145e-05,1.163e-05,0.0,0 STARLINK-4284,1 53023U 22076AP  24006.36977517  .00001163  00000-0  91145-4 0  9992,2 53023  53.2172  45.4628 0001390  91.8068 268.3083 15.08846516 83699,6917.86,95.437,540.687,538.764,0.0
53023.0,STARLINK-4284,PAYLOAD,2024-01-07 08:43:15,15.08858045,0.000137,53.217,41.0038,81.2564,278.8583,0.00054301,8.369e-05,0.0,0 STARLINK-4284,1 53023U 22076AP  24007.36337331  .00008369  00000-0  54301-3 0  9994,2 53023  53.2170  41.0038 0001370  81.2564 278.8583 15.08858045 83372,6917.825,95.436,540.638,538.742,0.0
53023.0,STARLINK-4284,PAYLOAD,2024-01-07 23:01:43,15.08853532,0.0001234,53.2167,38.3274,87.5967,272.5167,0.00011356,1.521e-05,0.0,0 STARLINK-4284,1 53023U 22076AP  24007.95953094  .00001521  00000-0  11356-3 0  9995,2 53023  53.2167  38.3274 0001234  87.5967 272.5167 15.08853532 83931,6917.839,95.437,540.558,538.85,0.0
53023.0,STARLINK-4284,PAYLOAD,2024-01-08 06:58:39,15.08847889,0.0001292,53.2165,36.8404,71.314,288.7993,-1.6641e-06,-3.14e-06,0.0,0 STARLINK-4284,1 53023U 22076AP  24008.29073170 -.00000314  00000-0 -16641-5 0  9996,2 53023  53.2165  36.8404 0001292  71.3140 288.7993 15.08847889 83984,6917.856,95.437,540.615,538.827,0.0
53023.0,STARLINK-4284,PAYLOAD,2024-01-09 05:14:03,15.08842247,0.000123,53.2171,32.6766,71.3195,288.793,-0.00012127,-2.217e-05,0.0,0 STARLINK-4284,1 53023U 22076AP  24009.21809186 -.00002217  00000-0 -12127-3 0  9990,2 53023  53.2171  32.6766 0001230  71.3195 288.7930 15.08842247 84129,6917.874,95.437,540.589,538.888,0.0
53023.0,STARLINK-4284,PAYLOAD,2024-01-09 11:35:35,15.08845918,0.0001438,53.2169,31.485,102.4067,257.7086,-6.3907e-05,-1.305e-05,0.0,0 STARLINK-4284,1 53023U 22076AP  24009.48304689 -.00001305  00000-0 -63907-4 0  9997,2 53023  53.2169  31.4850 0001438 102.4067 257.7086 15.08845918 83698,6917.862,95.437,540.722,538.733,0.0
53023.0,STARLINK-4284,PAYLOAD,2024-01-10 08:15:36,15.08846888,0.0001593,53.2171,27.6205,119.4855,240.6296,0.00020985,3.054e-05,0.0,0 STARLINK-4284,1 53023U 22076AP  24010.34416718  .00003054  00000-0  20985-3 0  9990,2 53023  53.2171  27.6205 0001593 119.4855 240.6296 15.08846888 83823,6917.859,95.437,540.826,538.622,0.0
53023.0,STARLINK-4284,PAYLOAD,2024-01-11 04:55:37,15.08837042,0.0001664,53.2169,23.7549,117.5095,242.6067,7.1632e-05,8.52e-06,0.0,0 STARLINK-4284,1 53023U 22076AP  24011.20529199  .00000852  00000-0  71632-4 0  9993,2 53023  53.2169  23.7549 0001664 117.5095 242.6067 15.08837042 84429,6917.889,95.438,540.906,538.603,0.0
53023.0,STARLINK-4284,PAYLOAD,2024-01-11 09:41:46,15.0884027,0.0001566,53.2179,22.8652,112.9748,247.1409,9.5892e-05,1.238e-05,0.0,0 STARLINK-4284,1 53023U 22076AP  24011.40401026  .00001238  00000-0  95892-4 0  9996,2 53023  53.2179  22.8652 0001566 112.9748 247.1409 15.08840270 83987,6917.88,95.438,540.828,538.661,0.0
53023.0,STARLINK-4284,PAYLOAD,2024-01-12 11:07:56,15.08853459,0.0001513,53.2169,18.1055,95.6395,264.477,0.00022032,3.221e-05,0.0,0 STARLINK-4284,1 53023U 22076AP  24012.46384570  .00003221  00000-0  22032-3 0  9996,2 53023  53.2169  18.1055 0001513  95.6395 264.4770 15.08853459 84615,6917.839,95.437,540.751,538.658,0.0
53023.0,STARLINK-4284,PAYLOAD,2024-01-12 12:43:18,15.08859668,0.0001676,53.2168,17.8078,117.2588,242.8575,5.4656e-05,5.82e-06,0.0,0 STARLINK-4284,1 53023U 22076AP  24012.53008092  .00000582  00000-0  54656-4 0  9991,2 53023  53.2168  17.8078 0001676 117.2588 242.8575 15.08859668 84150,6917.82,95.436,540.845,538.526,0.0
53023.0,STARLINK-4284,PAYLOAD,2024-01-12 19:04:53,15.08820698,0.0001471,53.2167,16.6185,93.7722,266.3438,-0.00025176,-4.29e-05,0.0,0 STARLINK-4284,1 53023U 22076AP  24012.79506033 -.00004290  00000-0 -25176-3 0  9993,2 53023  53.2167  16.6185 0001471  93.7722 266.3438 15.08820698 84662,6917.939,95.439,540.822,538.787,0.0
53023.0,STARLINK-4284,PAYLOAD,2024-01-12 22:15:39,15.08825693,0.0001671,53.2169,16.0244,85.1279,274.9904,-6.1444e-05,-1.265e-05,0.0,0 STARLINK-4284,1 53023U 22076AP  24012.92754267 -.00001265  00000-0 -61444-4 0  9990,2 53023  53.2169  16.0244 0001671  85.1279 274.9904 15.08825693 84212,6917.924,95.438,540.945,538.633,0.0
53023.0,STARLINK-4284,PAYLOAD,2024-01-13 04:37:11,15.08838036,0.0001577,53.2166,14.8344,89.9869,270.1303,0.00017853,2.554e-05,0.0,0 STARLINK-4284,1 53023U 22076AP  24013.19249868  .00002554  00000-0  17853-3 0  9990,2 53023  53.2166  14.8344 0001577  89.9869 270.1303 15.08838036 84720,6917.886,95.438,540.842,538.66,0.0
53023.0,STARLINK-4284,PAYLOAD,2024-01-13 12:34:07,15.08850653,0.0001641,53.2162,13.3479,85.394,274.724,0.0016036,0.00025333,0.0,0 STARLINK-4284,1 53023U 22076AP  24013.52369912  .00025333  00000-0  16036-2 0  9991,2 53023  53.2162  13.3479 0001641  85.3940 274.7240 15.08850653 84304,6917.848,95.437,540.848,538.578,0.0
53023.0,STARLINK-4284,PAYLOAD,2024-01-14 10:49:31,15.08868694,0.0001529,53.2167,9.1847,90.5641,269.5527,0.0018087,0.00028637,0.0,0 STARLINK-4284,1 53023U 22076AP  24014.45105701  .00028637  00000-0  18087-2 0  9996,2 53023  53.2167   9.1847 0001529  90.5641 269.5527 15.08868694 84913,6917.793,95.436,540.715,538.6,0.0
53023.0,STARLINK-4284,PAYLOAD,2024-01-14 18:46:27,15.08853446,0.000156,53.2169,7.6978,98.0656,262.0513,0.00097673,0.00015297,0.0,0 STARLINK-4284,1 53023U 22076AP  24014.78225896  .00015297  00000-0  97673-3 0  9997,2 53023  53.2169   7.6978 0001560  98.0656 262.0513 15.08853446 84964,6917.839,95.437,540.783,538.625,0.0
53023.0,STARLINK-4284,PAYLOAD,2024-01-14 21:57:13,15.08847335,0.0001561,53.217,7.1028,99.9205,260.1963,0.00057155,8.822e-05,0.0,0 STARLINK-4284,1 53023U 22076AP  24014.91473892  .00008822  00000-0  57155-3 0  9990,2 53023  53.2170   7.1028 0001561  99.9205 260.1963 15.08847335 84517,6917.858,95.437,540.803,538.643,0.0
53023.0,STARLINK-4284,PAYLOAD,2024-01-15 10:40:17,15.08873071,0.000162,53.2172,4.7243,102.0162,258.1012,0.0016611,0.00026271,0.0,0 STARLINK-4284,1 53023U 22076AP  24015.44465105  .00026271  00000-0  16611-2 0  9996,2 53023  53.2172   4.7243 0001620 102.0162 258.1012 15.08873071 84591,6917.779,95.435,540.765,538.524,0.0
53023.0,STARLINK-4284,PAYLOAD,2024-01-15 18:37:14,15.08839305,0.0001785,53.2173,3.2373,103.2566,256.8625,0.00010348,1.359e-05,0.0,0 STARLINK-4284,1 53023U 22076AP  24015.77585752  .00001359  00000-0  10348-3 0  9995,2 53023  53.2173   3.2373 0001785 103.2566 256.8625 15.08839305 85119,6917.883,95.438,540.982,538.513,0.0
